_id,objectid,has_wifi,location_name,public_name,address,postal_code,building_type,gis_id,asset_id,owner,neighbourhood,is_nia,is_emerging,ward,ward_number,telephone,website,globalid,geometry
1,1,Y,ALBION ARENA,Albion Arena,1501 ALBION RD,M9V 1B2,Arena,4480,15,City of Toronto,Mount Olive-Silverstone-Jamestown (2),Y,N,Etobicoke North,1,416-394-8690,https://www.toronto.ca/data/parks/prd/facilities/complex/800/index.html,72123f77-df11-4221-b31f-16bf44c22656,"c(-79.5837437502482, 43.7398401501284)"
2,2,Y,ANGELA JAMES ARENA,Angela James Arena,165 GRENOBLE DR,M3C 1E3,Arena,4467,374,City of Toronto,Flemingdon Park (44),Y,N,Don Valley East,16,416-395-7838,https://www.toronto.ca/data/parks/prd/facilities/complex/582/index.html,0d56f0ee-c7b7-4824-96b4-62c9d885c1bb,"c(-79.3275985298847, 43.713206129805)"
3,4,Y,BAYVIEW ARENA,Bayview Arena,3230 BAYVIEW AVE,M2M 3R7,Arena,4473,13009,City of Toronto,Newtonbrook East (50),N,N,Willowdale,18,416-395-7825,https://www.toronto.ca/data/parks/prd/facilities/complex/515/index.html,23acb1b0-616c-430e-99a9-9a2ccc79e043,"c(-79.3937288395685, 43.7879470097307)"
4,8,Y,DOWNSVIEW ARENA,Downsview Arena,1633 WILSON AVE,M3L 1A5,Arena,4495,13022,City of Toronto,Oakdale-Beverley Heights (154),Y,N,Humber River-Black Creek,7,416-395-7831,https://www.toronto.ca/data/parks/prd/facilities/complex/568/index.html,3a3b2a1b-2d21-4874-8309-7014902d01f1,"c(-79.5127705698672, 43.7198348099176)"
5,11,Y,HABITANT ARENA,Habitant Arena,3383 WESTON RD,M9M 2P4,Arena,4359,13029,City of Toronto,Humbermede (22),Y,N,Humber River-Black Creek,7,416-395-7949,https://www.toronto.ca/data/parks/prd/facilities/complex/652/index.html,b18ebce8-9b08-4696-8552-ec52a9ba3787,"c(-79.5402428595642, 43.7470188196909)"
6,13,Y,JOHN BOOTH MEMORIAL ARENA,John Booth Memorial Arena,230 GOSFORD BLVD,M3N 2H1,Arena,4437,13037,City of Toronto,Black Creek (24),Y,N,Humber River-Black Creek,7,416-395-7942,https://www.toronto.ca/data/parks/prd/facilities/complex/667/index.html,21e79599-7f5f-4969-9b50-7843b6490d39,"c(-79.5241920800711, 43.7697087999495)"
7,14,Y,LAMBTON ARENA,Lambton Arena,4100 DUNDAS ST W,M6S 2T7,Arena,4505,1833,City of Toronto,Lambton Baby Point,N,N,Parkdale-High Park,4,416-394-2735,https://www.toronto.ca/data/parks/prd/facilities/complex/479/index.html,77fdf906-a496-4320-a9fd-d6f522a9f80c,"c(-79.5053685597238, 43.6634469096982)"
8,15,Y,LONG BRANCH ARENA,Long Branch Arena,75 ARCADIAN CIR,M8W 2Z5,Arena,4506,1853,City of Toronto,Long Branch (19),N,N,Etobicoke-Lakeshore,3,416-394-8694,https://www.toronto.ca/data/parks/prd/facilities/complex/803/index.html,ce85b85a-12ee-415c-913e-300505e88821,"c(-79.5278364697204, 43.5917876299227)"
9,16,Y,MIMICO ARENA,Mimico Arena,31 DRUMMOND ST,M8V 1Y7,Arena,4508,721,City of Toronto,Mimico-Queensway (160),N,N,Etobicoke-Lakeshore,3,416-394-8695,https://www.toronto.ca/data/parks/prd/facilities/complex/802/index.html,e79f066d-584e-47cf-b8d8-b0e784f6f0bb,"c(-79.4988323602244, 43.6124018898363)"
10,19,Y,VICTORIA VILLAGE ARENA,Victoria Village Arena,190 BERMONDSEY RD,M4A 1Y1,Arena,4346,1075,City of Toronto,Victoria Village (43),Y,N,Don Valley East ,16,416-395-0143,https://www.toronto.ca/data/parks/prd/facilities/complex/771/index.html,bfe93f23-bf0a-4f03-a6c8-ee3d6d4eea1a,"c(-79.3157934004268, 43.7230985602235)"
11,20,Y,YORK MILLS ARENA,York Mills Arena,2539 BAYVIEW AVE,M2L 2Y4,Arena,4343,13082,City of Toronto,Bridle Path-Sunnybrook-York Mills (41),N,N,Don Valley West ,15,416-395-7844,https://www.toronto.ca/data/parks/prd/facilities/complex/778/index.html,9d0a0354-a1fe-45aa-80ca-8694bef424a9,"c(-79.3835117500732, 43.747606879781)"
12,21,Y,PLEASANT VIEW COMMUNITY CENTRE,Pleasant View Community Centre,545 VAN HORNE AVE,M2J 4S8,"Arena,Artificial Ice Rink Building,Community Recreation Centre,Outdoor Pool Building,Washroom Building",4454,2097,City of Toronto,Pleasant View (46),N,N,Don Valley North ,17,416-395-6006,https://www.toronto.ca/data/parks/prd/facilities/complex/732/index.html,1b165fdb-2cbc-469c-a662-9cdb6edb3ba7,"c(-79.3367080702965, 43.7870113797887)"
13,22,Y,PHIL WHITE ARENA,Phil White Arena,443 ARLINGTON AVE,M6C 3A4,"Arena,Artificial Ice Rink Building,Washroom Building",4227,1908,City of Toronto,Humewood-Cedarvale (106),N,N,Toronto-St. Paul's ,12,416-394-2734,https://www.toronto.ca/data/parks/prd/facilities/complex/477/index.html,30e4a631-af87-4235-8980-6b6d6c4e7841,"c(-79.4326124903034, 43.6912918201076)"
14,23,Y,AGINCOURT RECREATION CENTRE,Agincourt Recreation Centre,31 GLEN WATFORD DR,M1S 2B7,"Arena,Community Recreation Centre",4219,1608,City of Toronto,Agincourt South-Malvern West (128),N,N,Scarborough North ,23,416-396-4037,https://www.toronto.ca/data/parks/prd/facilities/complex/523/index.html,cd9f80ba-89ca-4924-8d31-bb8ceb28a2ec,"c(-79.2762931299111, 43.788414440165)"
15,24,Y,CENTENNIAL RECREATION CENTRE - SCARBOROUGH,Centennial Recreation Centre - Scarborough,1967 ELLESMERE RD,M1H 2W5,"Arena,Community Recreation Centre",4163,1675,City of Toronto,Woburn North (142),Y,N,Scarborough-Guildwood ,24,416-396-4057,https://www.toronto.ca/data/parks/prd/facilities/complex/537/index.html,f9624096-bf90-4336-9a61-ba4e2d927841,"c(-79.5863336102803, 43.6569329603221)"
16,25,Y,COMMANDER RECREATION CENTRE,Commander Recreation Centre,140 COMMANDER BLVD,M1S 3H7,"Arena,Community Recreation Centre",4164,1698,City of Toronto,Agincourt North (129),N,N,Scarborough North ,23,416-396-4024,https://www.toronto.ca/data/parks/prd/facilities/complex/558/index.html,1c7cbb64-19bb-4d59-8d9c-a7a6aa60931f,"c(-79.2678176303084, 43.7950478098312)"
17,26,Y,CUMMER PARK COMMUNITY CENTRE,Cummer Park Community Centre,6000 LESLIE ST,M2H 1J9,"Arena,Community Recreation Centre",4439,2060,City of Toronto,Bayview Woods-Steeles (49),N,N,Don Valley East ,16,416-396-4024,https://www.toronto.ca/data/parks/prd/facilities/complex/499/index.html,a1549715-38d0-4438-9e4b-bf2288afc084,"c(-79.3712622096712, 43.8001037700799)"
18,27,Y,DON MONTGOMERY COMMUNITY RECREATION CENTRE,Don Montgomery Community Recreation Centre,2467 EGLINTON AVE E,M1K 2R1,"Arena,Community Recreation Centre",4169,281,City of Toronto,Kennedy Park (124),Y,N,Scarborough Southwest ,20,416-396-4043,https://www.toronto.ca/data/parks/prd/facilities/complex/712/index.html,2b375ce3-2b3f-480e-bf85-1b32e1186675,"c(-79.2616645703624, 43.7326626202772)"
19,28,Y,MALVERN RECREATION CENTRE,Malvern Recreation Centre,30 SEWELLS RD,M1B 3G5,"Arena,Community Recreation Centre",4183,13047,City of Toronto,Malvern East (146),N,Y,Scarborough Rouge-Park ,25,416-396-4054,https://www.toronto.ca/data/parks/prd/facilities/complex/702/index.html,f7d9c81d-4ed2-4e1b-81d3-bd8b73d65e87,"c(-79.2163894297372, 43.8085763303068)"
20,29,Y,SCARBOROUGH VILLAGE RECREATION CENTRE,Scarborough Village Recreation Centre,3600 KINGSTON RD,M1M 1R9,"Arena,Community Recreation Centre",4185,925,City of Toronto,Scarborough Village (139),Y,N,Scarborough-Guildwood ,24,416-396-4048,https://www.toronto.ca/data/parks/prd/facilities/complex/743/index.html,68e8ffcb-b6f7-4ada-8216-681eb579e1d9,"c(-79.2167581198893, 43.739991319846)"
21,30,Y,GORD AND IRENE RISK COMMUNITY CENTRE,Gord And Irene Risk Community Centre,2650 FINCH AVE W,M9M 3A3,"Arena,Community Recreation Centre,Outdoor Pool Building",13602,13027,City of Toronto,Humber Summit (21),Y,N,Humber River-Black Creek,7,416-395-0355,https://www.toronto.ca/data/parks/prd/facilities/complex/642/index.html,4b513ac3-1e58-4484-8624-2afbfa911143,"c(-79.5665453702848, 43.7474370301364)"
22,32,Y,GRANDRAVINE COMMUNITY RECREATION CENTRE,Grandravine Community Recreation Centre,23 GRANDRAVINE DR,M3N 1J4,"Arena,Community Recreation Centre,Outdoor Pool Building",4421,14342,City of Toronto,York University Heights (27),Y,N,York Centre,6,416-395-6171,https://www.toronto.ca/data/parks/prd/facilities/complex/647/index.html,089804fa-34c3-4d25-9b86-f89a51c07729,"c(-79.4897156099342, 43.7517531498895)"
23,33,Y,HERON PARK COMMUNITY RECREATION CENTRE,Heron Park Community Recreation Centre,292 MANSE RD,M1E 3V4,"Arena,Community Recreation Centre,Outdoor Pool Building",22185,2079,City of Toronto,West Hill (136),Y,N,Scarborough Rouge-Park ,25,416-396-4035,https://www.toronto.ca/data/parks/prd/facilities/complex/633/index.html,279907d5-b8b6-433b-86b9-52f4fdab2551,"c(-79.1769383500681, 43.7688556102287)"
24,34,Y,McGREGOR PARK COMMUNITY CENTRE,McGregor Park Community Centre,2231 LAWRENCE AVE E,M1C 3B2,"Arena,Community Recreation Centre,Outdoor Pool Building",96441,13052,City of Toronto,Dorset Park (126),N,Y,Scarborough Centre ,21,416-396-4023,https://www.toronto.ca/data/parks/prd/facilities/complex/506/index.html,8d588365-e80e-4cba-a8d4-2d4088a625be,"c(-79.2801490000462, 43.7476285899487)"
25,36,Y,ORIOLE COMMUNITY CENTRE,Oriole Community Centre,2975 DON MILLS RD W,M2J 3B7,"Arena,Community Recreation Centre,Outdoor Pool Building",4426,2095,City of Toronto,Don Valley Village (47),N,N,Don Valley North ,17,416-395-6005,https://www.toronto.ca/data/parks/prd/facilities/complex/714/index.html,43a44405-b9e7-44a3-969d-2316d1e0c9d8,"c(-79.3512809603487, 43.781809509987)"
26,37,Y,RODING COMMUNITY CENTRE,Roding Community Centre,600 RODING ST,M3M 2A5,"Arena,Community Recreation Centre,Outdoor Pool Building",4337,2099,City of Toronto,Oakdale-Beverley Heights (154),N,Y,York Centre,6,416-395-7964,https://www.toronto.ca/data/parks/prd/facilities/complex/744/index.html,73073ca1-1145-4981-8cd4-d8be5759917b,"c(-79.4925005903342, 43.7290920298987)"
27,38,Y,CENTRAL ARENA,Central Arena,50 MONTGOMERY RD,M8X 1Z4,"Arena,Washroom Building",4496,2056,City of Toronto,Kingsway South (15),N,N,Etobicoke-Lakeshore,3,416-394-5439,https://www.toronto.ca/data/parks/prd/facilities/complex/824/index.html,afd5153c-467d-4f5b-8cfa-fb63c9c99031,"c(-79.5200549698785, 43.648463830109)"
28,39,Y,POWER HOUSE RECREATION CENTRE,Power House Recreation Centre,65 COLONEL SAMUEL SMITH PARK DR,M8V 4B6,"Artificial Ice Rink Building,Changeroom Building,Community Recreation Centre,Washroom Building",4488,13061,City of Toronto,New Toronto (18),N,N,Etobicoke-Lakeshore,3,416-338-1081,https://www.toronto.ca/data/parks/prd/facilities/complex/1429/index.html,f09cfb25-b23d-41f4-b569-9b9f0b6ca783,"c(-79.5153647696604, 43.5935265703072)"
29,40,Y,BROADLANDS COMMUNITY CENTRE,Broadlands Community Centre,19 CASTLEGROVE BLVD,M3A 1K9,"Artificial Ice Rink Building,Community Recreation Centre,Outdoor Pool Building,Washroom Building",13262,2053,City of Toronto,Parkwoods-O'Connor Hills (149),N,N,Don Valley East ,16,416-395-7966,https://www.toronto.ca/data/parks/prd/facilities/complex/7/index.html,3be8c4f6-74f7-473b-8828-82c50f2e6ed6,"c(-79.3227583604214, 43.7456714199397)"
30,41,Y,GLEN LONG COMMUNITY CENTRE,Glen Long Community Centre,35 GLEN LONG AVE,M6B 2M1,"Artificial Ice Rink Building,Community Recreation Centre,Outdoor Pool Building,Washroom Building",4433,2074,City of Toronto,Yorkdale-Glen Park (31),N,Y,Eglinton-Lawrence,8,416-395-7921,https://www.toronto.ca/data/parks/prd/facilities/complex/638/index.html,a4346e0e-fcd0-4f2b-994a-340ec1162c34,"c(-79.4558022801741, 43.7086258102452)"
31,42,Y,JIMMIE SIMPSON RECREATION CENTRE,Jimmie Simpson Recreation Centre,870 QUEEN ST E,M4M 3G9,"Artificial Ice Rink Building,Community Recreation Centre,Washroom Building",4157,1817,City of Toronto,South Riverdale (70),N,N,Toronto-Danforth ,14,416-392-0751,https://www.toronto.ca/data/parks/prd/facilities/complex/58/index.html,86043c42-68eb-4c65-a424-512261b414fe,"c(-79.3453298704247, 43.6604435400951)"
32,43,Y,ALBION POOL AND HEALTH CLUB,Albion Pool And Health Club,1485 ALBION RD,M9V 1B2,Community Recreation Centre,4481,13006,City of Toronto,Mount Olive-Silverstone-Jamestown (2),Y,N,Etobicoke North,1,416-394-8676,https://www.toronto.ca/data/parks/prd/facilities/complex/893/index.html,d479855c-d0d5-4941-9c9e-385aacabdeff,"c(-79.5811936900748, 43.7392934502128)"
33,45,Y,AMESBURY COMMUNITY CENTRE,Amesbury Community Centre,1507 LAWRENCE AVE W,M6L 1A8,Community Recreation Centre,4477,2044,City of Toronto,Brookhaven-Amesbury (30),N,N,York-South-Weston,5,416-395-0145,https://www.toronto.ca/data/parks/prd/facilities/complex/472/index.html,5a0aee24-6822-4911-aecc-3a20ce35d8fb,"c(-79.4826225798244, 43.7071746902646)"
34,46,Y,ANCASTER COMMUNITY CENTRE,Ancaster Community Centre,41 ANCASTER RD,M3K 1S7,Community Recreation Centre,4465,2045,City of Toronto,Downsview (155),Y,N,York Centre,6,416-395-6057,https://www.toronto.ca/data/parks/prd/facilities/complex/487/index.html,99b321e8-7297-4e49-a35f-3becbfc139fc,"c(-79.4657000500268, 43.7325346996972)"
35,47,Y,ANNETTE COMMUNITY RECREATION CENTRE,Annette Community Recreation Centre,333 ANNETTE ST,M6P 1R3,Community Recreation Centre,4489,2046,City of Toronto,High Park North (88),N,N,Parkdale-High Park,4,416-392-0736,https://www.toronto.ca/data/parks/prd/facilities/complex/17/index.html,962d5e26-3606-403a-a57e-9bb79020a5ff,"c(-79.4741390897072, 43.6612044598583)"
36,48,Y,ANTIBES COMMUNITY CENTRE,Antibes Community Centre,140 ANTIBES DR,M2R 3J3,Community Recreation Centre,4468,1621,City of Toronto,Westminster-Branson (35) ,N,Y,York Centre,6,416-395-0096,https://www.toronto.ca/data/parks/prd/facilities/complex/42/index.html,9463ed04-7ca4-4c91-8a93-8e299e5c52fb,"c(-79.4469765597813, 43.7811549798262)"
37,49,Y,ARMOUR HEIGHTS COMMUNITY CENTRE,Armour Heights Community Centre,2140 AVENUE RD,M4V 2J1,Community Recreation Centre,4469,46,City of Toronto,Bedford Park-Nortown (39),N,N,Eglinton-Lawrence,8,416-395-7848,https://www.toronto.ca/data/parks/prd/facilities/complex/503/index.html,0ad6d611-4b27-427b-aa0c-efa534a23528,"c(-79.421917830352, 43.7394458297953)"
38,51,Y,BEACHES RECREATION CENTRE,Beaches Recreation Centre,6 WILLIAMSON RD,M4E 1K5,Community Recreation Centre,4412,71,City of Toronto,The Beaches (63),N,N,Beaches-East York ,19,416-392-0740,https://www.toronto.ca/data/parks/prd/facilities/complex/24/index.html,da357e43-21a6-473b-a21f-13928f425e2d,"c(-79.2988070597013, 43.6739310200383)"
39,53,Y,BIRKDALE COMMUNITY CENTRE,Birkdale Community Centre,1299 ELLESMERE RD,M1P 2Y2,Community Recreation Centre,4444,105,City of Toronto,Bendale-Glen Andrew (156),N,N,Scarborough Centre ,21,416-396-4069,https://www.toronto.ca/data/parks/prd/facilities/complex/289/index.html,842ef8d4-4ed4-4a86-be60-659a2c1b566e,"c(-79.2638891996545, 43.7682320103242)"
40,56,Y,CANOE LANDING COMMUNITY CENTRE,Canoe Landing Community Centre,45 FORT YORK BLVD,M5V 0R6,Community Recreation Centre,97785,63202,City of Toronto,Harbourfront-CityPlace (165),N,N,Spadina-Fort York ,10,416-397-4200,https://www.toronto.ca/data/parks/prd/facilities/complex/3643/index.html,5c4bbcf0-0dd5-4cee-a973-5bd844c876ad,"c(-79.3946528700259, 43.6398427200645)"
41,58,Y,CEDARBROOK COMMUNITY CENTRE,Cedarbrook Community Centre,91 EASTPARK BLVD,M1H 1C6,Community Recreation Centre,4162,2055,City of Toronto,Golfdale-Cedarbrae-Woburn (141),Y,N,Scarborough-Guildwood ,24,416-396-4028,https://www.toronto.ca/data/parks/prd/facilities/complex/600/index.html,dcaa6a7b-f557-40a0-af7c-33d815ec8975,"c(-79.2274196499731, 43.7556539000319)"
42,59,Y,CHALKFARM COMMUNITY CENTRE,Chalkfarm Community Centre,180 CHALKFARM DR,M3L 2H8,Community Recreation Centre,4497,2057,Third Party Organization,Oakdale-Beverley Heights (154),Y,N,Humber River-Black Creek,7,416-395-7802,https://www.toronto.ca/data/parks/prd/facilities/complex/486/index.html,8e8794ce-1b6d-4630-aa3c-a1b5c7b6fcef,"c(-79.5118150301028, 43.7240484400035)"
43,60,Y,DENNIS R. TIMBRELL RESOURCE CENTRE,Dennis R. Timbrell Resource Centre,29 ST DENNIS DR,M3C 3J3,Community Recreation Centre,4511,273,City of Toronto,Flemingdon Park (44),Y,N,Don Valley East ,16,416-395-7972,https://www.toronto.ca/data/parks/prd/facilities/complex/1056/index.html,1cb8b268-c1f0-4f1c-98ca-04e93b411829,"c(-79.3316873601224, 43.7179406800766)"
44,61,Y,DOUGLAS SNOW AQUATIC CENTRE,Douglas Snow Aquatic Centre,5100 YONGE ST,M2N 5V7,Community Recreation Centre,20561,1715,City of Toronto,Willowdale West (37),N,N,Willowdale ,18,416-395-7585,https://www.toronto.ca/data/parks/prd/facilities/complex/567/index.html,cc507c35-c99d-4ad5-bed3-1bd42770fb69,"c(-79.4148887396292, 43.7672678802749)"
45,62,Y,EAST YORK COMMUNITY CENTRE,East York Community Centre,1081 1/2 PAPE AVE,M4K 3W4,Community Recreation Centre,4448,317,PFR,Old East York (58),N,Y,Toronto-Danforth ,14,416-396-2880,https://www.toronto.ca/data/parks/prd/facilities/complex/329/index.html,ddf39bd8-bdcc-4f11-a567-cf7d3f66c69d,"c(-79.3492704498945, 43.6917839803155)"
46,63,Y,EDITHVALE COMMUNITY CENTRE,Edithvale Community Centre,131 FINCH AVE W,M2N 2H8,Community Recreation Centre,4350,2065,City of Toronto,Willowdale West (37),N,N,Willowdale ,18,416-395-6164,https://www.toronto.ca/data/parks/prd/facilities/complex/1463/index.html,eb6d839f-2d18-44d2-ae7e-cf56eee081d7,"c(-79.4265392798065, 43.7769936502204)"
47,65,Y,ELMBANK COMMUNITY CENTRE,Elmbank Community Centre,10 RAMPART RD,M9V 4L9,Community Recreation Centre,4352,1732,City of Toronto,Mount Olive-Silverstone-Jamestown (2),Y,N,Etobicoke North,1,416-394-8671,https://www.toronto.ca/data/parks/prd/facilities/complex/750/index.html,a9445d52-2053-4b75-b9c3-67ae3a89eee9,"c(-79.588706030403, 43.7348000097144)"
48,66,Y,ETOBICOKE OLYMPIUM,Etobicoke Olympium,590 RATHBURN RD,M9C 3T3,Community Recreation Centre,4354,1737,City of Toronto,Eringate-Centennial-West Deane (11),N,N,Etobicoke Centre,2,416-394-8111,https://www.toronto.ca/data/parks/prd/facilities/complex/892/index.html,68aa0bb6-a5a5-41fe-b630-9715a9a751b7,"c(-79.5841050203161, 43.6504501900944)"
49,67,Y,FAIRBANK MEMORIAL COMMUNITY CENTRE,Fairbank Memorial Community Recreation Centre,2213 DUFFERIN ST,M6E 3S2,Community Recreation Centre,4428,13487,City of Toronto,Oakwood Village (107),N,N,Toronto-St. Paul's ,12,416-394-2473,https://www.toronto.ca/data/parks/prd/facilities/complex/482/index.html,6aa5f320-c17d-4148-a831-fe36b9f2fe14,"c(-79.4479966596685, 43.6912815598661)"
50,68,Y,FAIRFIELD SENIORS' CENTRE,Fairfield Seniors' Centre,80 LOTHIAN AVE,M8Z 4K5,Community Recreation Centre,4355,2068,PFR,Stonegate-Queensway (16),N,N,Etobicoke-Lakeshore,3,416-394-8686,https://www.toronto.ca/data/parks/prd/facilities/complex/822/index.html,6f9687f2-653c-4509-89ec-22d565f6a9d6,"c(-79.5193117999322, 43.6396780297173)"
51,70,Y,FALSTAFF COMMUNITY CENTRE,Falstaff Community Centre,50 FALSTAFF AVE,M6L 2C7,Community Recreation Centre,4356,2070,TCHC (Toronto Community Housing Corporation),Rustic (28),Y,N,York South-Weston,5,416-395-1199,https://www.toronto.ca/data/parks/prd/facilities/complex/1063/index.html,bda7b267-4525-48f8-ab66-f0b8605c6c71,"c(-79.5038387099304, 43.7167216401997)"
52,71,Y,FLEMINGDON COMMUNITY CENTRE AND PLAYGROUND PARADISE,Flemingdon Community Centre And Playground Paradise,150 GRENOBLE DR,M3C 3E7,Community Recreation Centre,4430,1745,City of Toronto,Flemingdon Park (44),Y,N,Don Valley East ,16,416-395-6014,https://www.toronto.ca/data/parks/prd/facilities/complex/583/index.html,26b55969-ab35-4995-ad24-f2a8a0899a8d,"c(-79.3266034804175, 43.7135307199789)"
53,73,Y,GUS RYDER POOL AND HEALTH CLUB,Gus Ryder Pool And Health Club,1 FAUSTINA DR,M8V 3L9,Community Recreation Centre,4607,1764,City of Toronto,New Toronto (18),N,N,Etobicoke-Lakeshore,3,416-394-8726,https://www.toronto.ca/data/parks/prd/facilities/complex/896/index.html,914eac15-95e1-4c0f-98af-5c1b1f252ec1,"c(-79.5221081296475, 43.6011444797411)"
54,76,Y,JENNER JEAN-MARIE COMMUNITY CENTRE,Jenner Jean-Marie Community Centre,48 THORNCLIFFE PARK DR,M4H 1J7,Community Recreation Centre,4436,2082,City of Toronto,Thorncliffe Park (55),Y,N,Don Valley West ,15,416-396-2874,https://www.toronto.ca/data/parks/prd/facilities/complex/1076/index.html,db3cf319-288f-4d41-9d22-99c749c488c2,"c(-79.3427368303565, 43.7029474098799)"
55,77,Y,JOHN INNES COMMUNITY RECREATION CENTRE,John Innes Community Recreation Centre,150 SHERBOURNE ST,M5A 2R6,Community Recreation Centre,4222,1818,City of Toronto,Moss Park (73),N,N,Toronto Centre ,13,416-392-6779,https://www.toronto.ca/data/parks/prd/facilities/complex/63/index.html,3d78e4a2-ee30-49a3-aaf2-95cfeffa7602,"c(-79.3703969703559, 43.6553875499658)"
56,78,Y,JOSEPH J. PICCININNI COMMUNITY CENTRE,Joseph J. Piccininni Community Centre,1369 ST CLAIR AVE W,M6E 1C5,Community Recreation Centre,13603,1820,City of Toronto,Corso Italia-Davenport (93),N,N,Davenport,9,416-392-0036,https://www.toronto.ca/data/parks/prd/facilities/complex/509/index.html,8708068b-78f1-47c5-ab44-36158c6f450c,"c(-79.4513966096441, 43.6753307903095)"
57,81,Y,L'AMOREAUX COMMUNITY RECREATION CENTRE,L'Amoreaux Community Recreation Centre,2000 MCNICOLL AVE,M1V 5E9,Community Recreation Centre,4181,13866,City of Toronto,Steeles (116),N,Y,Scarborough-Agincourt ,22,416-396-4510,https://www.toronto.ca/data/parks/prd/facilities/complex/788/index.html,639ad748-10da-49d8-8713-cc862bcafab8,"c(-79.3048947195996, 43.8126555402933)"
58,83,Y,MARY McCORMICK RECREATION CENTRE,Mary McCormick Recreation Centre,66 SHERIDAN AVE,M6K 2G9,Community Recreation Centre,4223,1867,City of Toronto,Little Portugal (84),N,N,Davenport,9,416-392-0742,https://www.toronto.ca/data/parks/prd/facilities/complex/100/index.html,56a450eb-3d2d-415e-a779-6ac0ecf348df,"c(-79.4334435801633, 43.6473440597276)"
59,84,Y,MASARYK - COWAN COMMUNITY CENTRE,Masaryk - Cowan Community Centre,220 COWAN AVE,M6K 2N6,Community Recreation Centre,4158,13049,City of Toronto,South Parkdale (85),Y,N,Parkdale-High Park,4,416-392-6928,https://www.toronto.ca/data/parks/prd/facilities/complex/89/index.html,846c5096-10ad-4eab-8f83-2348cd6b38c0,"c(-79.4332336699325, 43.6407247099376)"
60,85,Y,MATTY ECKLER RECREATION CENTRE,Matty Eckler Recreation Centre,953 GERRARD ST E,M4M 1Z4,Community Recreation Centre,4156,1866,City of Toronto,South Riverdale (70),N,N,Toronto-Danforth ,14,416-392-0750,https://www.toronto.ca/data/parks/prd/facilities/complex/234/index.html,3a5c9ca3-37a2-4728-aa01-03a91c8b40d8,"c(-79.3393969902499, 43.6680536702825)"
61,87,Y,MILLIKEN PARK COMMUNITY RECREATION CENTRE,Milliken Park Community Recreation Centre,4325 MCCOWAN RD,M1V 4P1,Community Recreation Centre,4186,1874,City of Toronto,Milliken (130),N,N,Scarborough North ,23,416-396-7757,https://www.toronto.ca/data/parks/prd/facilities/complex/405/index.html,d6578047-f97f-472f-b203-90492005bb89,"c(-79.2745822201806, 43.8296478699464)"
62,89,Y,NORTH KIPLING COMMUNITY CENTRE,North Kipling Community Centre,2 ROWNTREE RD,M9V 5C7,Community Recreation Centre,4483,13055,City of Toronto,Mount Olive-Silverstone-Jamestown (2),Y,N,Etobicoke North,1,416-394-8679,https://www.toronto.ca/data/parks/prd/facilities/complex/749/index.html,38caca05-4001-47bd-898e-1c52ca8e443d,"c(-79.5848925499695, 43.751762090317)"
63,90,Y,OAKRIDGE COMMUNITY RECREATION CENTRE,Oakridge Community Recreation Centre,63 PHARMACY AVE,M1L 3E7,Community Recreation Centre,4188,1439,TDSB,Oakridge (121),Y,N,Scarborough Southwest ,20,416-338-1966,https://www.toronto.ca/data/parks/prd/facilities/complex/731/index.html,ab0de426-d2e9-4971-89df-fca539d4859a,"c(-79.2839400998526, 43.6944411298229)"
64,92,Y,OURLAND COMMUNITY CENTRE,Ourland Community Centre,18 OURLAND AVE,M8Z 4C9,Community Recreation Centre,4484,13058,City of Toronto,Mimico-Queensway (160),N,N,Etobicoke-Lakeshore,3,416-394-8673,https://www.toronto.ca/data/parks/prd/facilities/complex/793/index.html,383bd46b-5cd3-454a-ad38-882b149b22f0,"c(-79.5082581399555, 43.6150968902814)"
65,93,Y,PAM McCONNELL AQUATIC CENTRE,Pam McConnell Aquatic Centre,640 DUNDAS ST E,M5A 2B8,Community Recreation Centre,23041,14322,City of Toronto,Regent Park (72),Y,N,Toronto Centre ,13,416-338-2237,https://www.toronto.ca/data/parks/prd/facilities/complex/2012/index.html,e99d473f-6aa4-41c9-845d-64eb678cde87,"c(-79.3609607396247, 43.6607636399595)"
66,95,Y,PARKWAY FOREST COMMUNITY CENTRE,Parkway Forest Community Centre,55 FOREST MANOR RD,M2J 0C2,Community Recreation Centre,50081,45042,City of Toronto,Henry Farm (53),N,N,Don Valley North ,17,416-392-6383,https://www.toronto.ca/data/parks/prd/facilities/complex/2791/index.html,1ecb64c4-22c9-4cee-8db1-a6bd968af90a,"c(-79.3438943697872, 43.7725373199693)"
67,96,Y,PORT UNION COMMUNITY RECREATION CENTRE,Port Union Community Recreation Centre,5450 LAWRENCE AVE E,M1C 3B2,Community Recreation Centre,4367,829,City of Toronto,Centennial Scarborough (133),N,N,Scarborough Rouge-Park ,25,416-396-4031,https://www.toronto.ca/data/parks/prd/facilities/complex/883/index.html,e68f6c73-0463-4103-ac39-04743360fcdd,"c(-79.1402912501674, 43.7796645898013)"
68,97,Y,REGENT PARK COMMUNITY CENTRE,Regent Park Community Centre,402 SHUTER ST,M5A 1X6,Community Recreation Centre,50366,45463,City of Toronto,Regent Park (72),Y,N,Toronto Centre ,13,416-392-5490,https://www.toronto.ca/data/parks/prd/facilities/complex/3502/index.html,a9313bfb-552a-4847-9dea-97240c20c3a3,"c(-79.3617404395621, 43.6579936203162)"
69,99,Y,SECORD COMMUNITY CENTRE,Secord Community Centre,91 BARRINGTON AVE,M4C 4Y9,Community Recreation Centre,4229,13063,City of Toronto,Taylor-Massey (61),Y,N,Beaches-East York ,19,416-396-2857,https://www.toronto.ca/data/parks/prd/facilities/complex/325/index.html,fd4c63c1-1225-41b2-b71c-833299877494,"c(-79.3015680703546, 43.6917721002016)"
70,102,Y,STAN WADLOW CLUBHOUSE,Stan Wadlow Clubhouse,373 CEDARVALE AVE,M4C 4K7,Community Recreation Centre,4232,2104,City of Toronto,Woodbine-Lumsden (60),N,N,Beaches-East York ,19,416-396-2842,https://www.toronto.ca/data/parks/prd/facilities/complex/297/index.html,fe85a786-9ff6-47d8-8430-5a758fb76a17,"c(-79.3150895901646, 43.6981800399858)"
71,103,Y,STEPHEN LEACOCK COMMUNITY RECREATION CENTRE,Stephen Leacock Community Recreation Centre,2500 BIRCHMOUNT RD,M1T 2M5,Community Recreation Centre,4378,2105,City of Toronto,Tam O'Shanter-Sullivan (118),N,N,Scarborough-Agincourt ,22,416-396-4184,https://www.toronto.ca/data/parks/prd/facilities/complex/1105/index.html,5b051ce6-77ef-4042-a446-39a5ab6471fa,"c(-79.3023537198341, 43.7865283500433)"
72,104,Y,STEPHEN LEACOCK SENIORS' COMMUNITY CENTRE,Stephen Leacock Seniors' Community Centre,2520 BIRCHMOUNT RD,M1T 2M5,Community Recreation Centre,4166,14344,City of Toronto,Tam O'Shanter-Sullivan (118),N,N,Scarborough-Agincourt ,22,416-396-4040,https://www.toronto.ca/data/parks/prd/facilities/complex/1873/index.html,aa5cc334-92c6-43a3-b678-93f9ebea270f,"c(-79.302473110427, 43.7868718198023)"
73,106,Y,THISTLETOWN COMMUNITY CENTRE,Thistletown Community Centre,925 ALBION RD,M9V 1A6,Community Recreation Centre,4458,2106,City of Toronto,Thistletown-Beaumond Heights (3),Y,N,Etobicoke North,1,416-394-8717,https://www.toronto.ca/data/parks/prd/facilities/complex/354/index.html,d431c3d3-f564-4173-b097-5a21e3e71df0,"c(-79.5625803395713, 43.7354704800398)"
74,107,Y,THISTLETOWN SENIORS' CENTRE,Thistletown Seniors' Centre,925 ALBION RD,M9V 1A6,Community Recreation Centre,4459,13072,City of Toronto,Thistletown-Beaumond Heights (3),Y,N,Etobicoke North,1,416-394-8869,https://www.toronto.ca/data/parks/prd/facilities/complex/397/index.html,5e5e7577-4d1b-49d7-a06d-c11c2593e9a1,"c(-79.5625803395713, 43.7354704800398)"
75,108,Y,TRACE MANES PARK COMMUNITY CENTRE,Trace Manes Park Community Centre,110 RUMSEY RD,M4G 1P2,Community Recreation Centre,4340,13073,City of Toronto,Leaside-Bennington (56),N,N,Don Valley West ,15,416-396-2853,https://www.toronto.ca/data/parks/prd/facilities/complex/705/index.html,8d4666d0-8651-437f-b21c-7c897028d4ec,"c(-79.3671729401574, 43.7057256696995)"
76,109,Y,TRINITY COMMUNITY RECREATION CENTRE,Trinity Community Recreation Centre,155 CRAWFORD ST,M6J 2V5,Community Recreation Centre,4174,2006,City of Toronto,Trinity-Bellwoods (81),N,N,Spadina-Fort York ,10,416-392-0743,https://www.toronto.ca/data/parks/prd/facilities/complex/287/index.html,2ac3d799-dad4-4bed-b9ce-83dfb31a31ff,"c(-79.4153739098327, 43.646435279749)"
77,110,Y,WARDEN HILLTOP COMMUNITY CENTRE,Warden Hilltop Community Centre,25 MENDELSSOHN ST,M1L 0G6,Community Recreation Centre,20581,1569,City of Toronto,Clairlea-Birchmount (120),N,N,Scarborough Southwest ,20,416-392-7640,https://www.toronto.ca/data/parks/prd/facilities/complex/1865/index.html,a49bd529-54ca-4114-9da5-967e7e0ff7f5,"c(-79.2804886800046, 43.7149029401169)"
78,111,Y,WELLESLEY COMMUNITY CENTRE,Wellesley Community Centre,495 SHERBOURNE ST,M4X 1K7,Community Recreation Centre,4176,1095,City of Toronto,North St.James Town (74),N,N,Toronto Centre ,13,416-392-0227,https://www.toronto.ca/data/parks/prd/facilities/complex/451/index.html,d2373552-cfd8-432e-8cfe-d40d32788094,"c(-79.3744794000972, 43.6677968499193)"
79,112,Y,WEST ACRES SENIOR CENTRE,West Acres Senior Centre,65 HINTON RD,M9W 6Z8,Community Recreation Centre,4461,2108,TCHC (Toronto Community Housing Corporation),Rexdale-Kipling (4),N,N,Etobicoke North,1,416-394-8680,https://www.toronto.ca/data/parks/prd/facilities/complex/396/index.html,f9e173dc-d145-402b-b180-fc6b7dd2e24c,"c(-79.5716568300655, 43.7252784700688)"
80,116,Y,AMESBURY SPORTS COMPLEX,Amesbury Sports Complex,155 CULFORD RD,M6M 4K6,"Community Recreation Centre,Outdoor Pool Building",13522,1617,City of Toronto,Brookhaven-Amesbury (30),N,N,York-South-Weston,5,416-395-6683,https://www.toronto.ca/data/parks/prd/facilities/complex/480/index.html,a464c994-957c-4d0b-bdc9-7d43514ef507,"c(-79.4826225798244, 43.7071746902646)"
81,117,Y,DOMENICO DILUCA COMMUNITY RECREATION CENTRE,Domenico Diluca Community Centre,25 STANLEY RD,M3N 1C2,"Community Recreation Centre,Outdoor Pool Building",13562,13020,City of Toronto,Glenfield-Jane Heights (25) ,Y,N,Humber River-Black Creek,7,416-395-6673,https://www.toronto.ca/data/parks/prd/facilities/complex/760/index.html,e847d13d-9f22-4f09-9d81-9216446a091c,"c(-79.5158439400161, 43.7424451802391)"
82,118,Y,DRIFTWOOD COMMUNITY RECREATION CENTRE,Driftwood Community Recreation Centre,4401 JANE ST,M3N 2K3,"Community Recreation Centre,Outdoor Pool Building",4348,2064,City of Toronto,Glenfield-Jane Heights (25) ,Y,N,Humber River-Black Creek,7,416-395-0226,https://www.toronto.ca/data/parks/prd/facilities/complex/575/index.html,99e35b92-c529-478b-928d-a04fc4858ed0,"c(-79.5187789803911, 43.76545582971)"
83,119,Y,LAWRENCE HEIGHTS COMMUNITY CENTRE,Lawrence Heights Community Centre,5 REPLIN RD,M6A 2M8,"Community Recreation Centre,Outdoor Pool Building",4438,612,City of Toronto,Englemount-Lawrence (32),N,Y,Eglinton-Lawrence,8,416-395-6118,https://www.toronto.ca/data/parks/prd/facilities/complex/675/index.html,a062d8f8-a536-4b1a-baf4-8935b76e2997,"c(-79.4423626804298, 43.7179974998697)"
84,120,Y,NORTHWOOD COMMUNITY CENTRE,Northwood Community Centre,15 CLUBHOUSE CRT,M3L 2L7,"Community Recreation Centre,Outdoor Pool Building",4423,771,City of Toronto,Glenfield-Jane Heights (25) ,Y,N,Humber River-Black Creek,7,416-395-7284,https://www.toronto.ca/data/parks/prd/facilities/complex/703/index.html,e65cbc83-dd3e-462c-a456-834bd75764c8,"c(-79.4999933303212, 43.7455256600104)"
85,121,Y,OAKDALE COMMUNITY CENTRE,Oakdale Community Centre,350 GRANDRAVINE DR,M3J 1B3,"Community Recreation Centre,Outdoor Pool Building",4425,1892,City of Toronto,Glenfield-Jane Heights (25) ,Y,N,Humber River-Black Creek,7,416-395-0484,https://www.toronto.ca/data/parks/prd/facilities/complex/780/index.html,88d468be-8093-4eef-a330-65038d3cabb9,"c(-79.5127433697787, 43.7480596203221)"
86,122,Y,O'CONNOR COMMUNITY CENTRE,O'Connor Community Centre,1386 VICTORIA PARK AVE,M4A 2L8,"Community Recreation Centre,Outdoor Pool Building",4424,2092,TCHC (Toronto Community Housing Corporation),Victoria Village (43),Y,N,Beaches-East York ,19,416-395-7957,https://www.toronto.ca/data/parks/prd/facilities/complex/1093/index.html,8d859e16-fbcd-4ccf-8e0c-619ee8617ee7,"c(-79.3018561995921, 43.7176677001972)"
87,123,Y,NORTH TORONTO MEMORIAL COMMUNITY CENTRE,North Toronto Memorial Community Centre,200 EGLINTON AVE W,M4R 1A7,"Community Recreation Centre,Outdoor Pool Building,Washroom Building",4420,1886,City of Toronto,Yonge-Eglinton (100),N,N,Eglinton-Lawrence,8,416-392-6591,https://www.toronto.ca/data/parks/prd/facilities/complex/189/index.html,b8c2f466-bf38-4a1b-94e0-207f0d9797d2,"c(-79.4046230099546, 43.706105830084)"
88,125,Y,THE ELMS POOL AND COMMUNITY SCHOOL,The Elms Pool And Community School,45 GOLFDOWN DR,M9W 2H8,"Community Recreation Centre,School",4457,1987,TDSB,Elms-Old Rexdale (5),Y,N,Etobicoke North,1,416-394-8983,https://www.toronto.ca/data/parks/prd/facilities/complex/795/index.html,161b499f-8de4-4d20-9caa-bb23a6888a28,"c(-79.5521137897183, 43.7222272998932)"
89,127,Y,AGINCOURT,Agincourt Public Library,155 BONIS AVE,M1T 3W6,Library,NA,NA,,Tam O'Shanter-Sullivan (118),N,N,Scarborough-Agincourt ,22,416-396-8943,https://www.torontopubliclibrary.ca/detail.jsp?R=LIB02,483169ba-8871-4e45-982d-3d10f069cd13,"c(-79.2934139502313, 43.7852190603219)"
90,128,Y,ALBERT CAMPBELL,Albert Campbell Public Library,496 BIRCHMOUNT RD,M1K 1N8,Library,NA,NA,,Clairlea-Birchmount (120),N,N,Scarborough Southwest ,20,416-396-8890,https://www.torontopubliclibrary.ca/detail.jsp?R=LIB03,0e01d599-0b20-4b8b-aa4a-6bbd41b38bce,"c(-79.26935138957, 43.7080647900201)"
91,129,Y,ALBION,Albion Public Library,1515 ALBION RD,M9V 1B2,Library,NA,NA,,Mount Olive-Silverstone-Jamestown (2),Y,N,Etobicoke North,1,416-394-5170,https://www.torontopubliclibrary.ca/detail.jsp?R=LIB04,f9156b19-f327-4c85-95f1-4586559dec68,"c(-79.5841715199017, 43.7398614600713)"
92,130,Y,ALDERWOOD,Alderwood Public Library,2 ORIANNA DR,M8W 4Y1,Library,NA,NA,,Alderwood (20),N,N,Etobicoke-Lakeshore,3,416-394-5310,https://www.torontopubliclibrary.ca/detail.jsp?R=LIB020,cbc24283-8b3a-42ec-a445-227249c877e2,"c(-79.5473557702895, 43.6019052099937)"
93,131,Y,AMESBURY PARK,Amesbury Park Public Library,1565 LAWRENCE AVE W,M6L 1A8,Library,NA,NA,,Brookhaven-Amesbury (30),N,N,York South-Weston,5,416-395-5420,https://www.torontopubliclibrary.ca/detail.jsp?R=LIB021,f4f16a73-9694-4aeb-aabe-f990fd985e89,"c(-79.4857521503742, 43.7064464802823)"
94,132,Y,ANNETTE STREET,Annette Street Public Library,145 ANNETTE ST,M6P 1P3,Library,NA,NA,,Junction Area,N,N,Parkdale-High Park,4,416-393-7692,https://www.torontopubliclibrary.ca/detail.jsp?R=LIB022,46274049-e446-470e-ae1b-733e7631451a,"c(-79.4664443500538, 43.6633125501731)"
95,133,Y,ARMOUR HEIGHTS,Armour Heights Community Centre,2140 AVENUE RD,M5M 4M7,Library,NA,NA,,Bedford Park-Nortown (39),N,N,Eglinton-Lawrence,8,416-395-5430,https://www.torontopubliclibrary.ca/detail.jsp?R=LIB023,8c2fc68f-029f-481f-b724-a9eec81ab2d2,"c(-79.421917830352, 43.7394458297953)"
96,134,Y,BARBARA FRUM,Barbara Frum Community Centre,20 COVINGTON RD,M6A 3C1,Library,NA,NA,,Englemount-Lawrence (32),N,Y,Eglinton-Lawrence,8,416-395-5440,https://www.torontopubliclibrary.ca/detail.jsp?R=LIB05,68f0ac68-e37d-4c72-85e4-40c0d7bc71b0,"c(-79.4322078100477, 43.7207939299578)"
97,135,Y,BAYVIEW,Bayview Public Library,2901 BAYVIEW AVE,M2K 1E6,Library,NA,NA,,Bayview Village (52),N,N,Don Valley North ,17,416-395-5460,https://www.torontopubliclibrary.ca/detail.jsp?R=LIB024,1f145645-39c4-4057-86cf-dccaa84e8c04,"c(-79.3860258399061, 43.76920286031)"
98,136,Y,BEACHES,Beaches Public Library,2161 QUEEN ST E,M4L 1J1,Library,NA,NA,,The Beaches (63),N,N,Beaches-East York ,19,416-393-7703,https://www.torontopubliclibrary.ca/detail.jsp?R=LIB025,33379044-ac7f-4929-98fb-33b62d9550a6,"c(-79.2984973098116, 43.6700914599423)"
99,137,Y,BENDALE,Bendale Public Library,1515 DANFORTH RD,M1J 1H5,Library,NA,NA,,Bendale South (157),N,N,Scarborough Centre ,21,416-396-8910,https://www.torontopubliclibrary.ca/detail.jsp?R=LIB026,bace4602-bf71-4e52-8b91-f28616ad7cf6,"c(-79.2440272996023, 43.7510824102648)"
100,138,Y,BLACK CREEK,Black Creek Public Library,1700 WILSON AVE,M3L 1B2,Library,NA,NA,,Oakdale-Beverley Heights (154),Y,N,Humber River-Black Creek,7,416-395-5470,https://www.torontopubliclibrary.ca/detail.jsp?R=LIB027,d53c08bb-b91d-438d-bd74-4d6ecb49642a,"c(-79.5125311904035, 43.7209712998521)"
101,139,Y,BLOOR/GLADSTONE,Bloor Gladstone Public Library,1101 BLOOR ST W,M6H 1M7,Library,NA,NA,,Dufferin Grove (83),N,N,Davenport,9,416-393-7674,https://www.torontopubliclibrary.ca/detail.jsp?R=LIB06,a6d7ba71-6eb5-4713-b6b6-0fc52242d4ac,"c(-79.434018490267, 43.6599223003195)"
102,140,Y,BRENTWOOD,Brentwood Public Library,36 BRENTWOOD RD N,M8X 2B5,Library,NA,NA,,Kingsway South (15),N,N,Etobicoke-Lakeshore,3,416-394-5240,https://www.torontopubliclibrary.ca/detail.jsp?R=LIB07,064b073b-f6d1-4aca-96bd-7febdbb172a9,"c(-79.5143110000181, 43.647433359757)"
103,141,Y,BRIDLEWOOD,Bridlewood Public Library,2900 WARDEN AVE,M1W 2S8,Library,NA,NA,,L'Amoreaux West (147),N,Y,Scarborough-Agincourt ,22,416-396-8960,https://www.torontopubliclibrary.ca/detail.jsp?R=LIB028,448a3175-4a1d-42e0-9316-71ced7f9dd34,"c(-79.3183674501099, 43.7985548100335)"
104,142,Y,BROOKBANKS,Brookbanks Public Library,210 BROOKBANKS DR,M3A 2T8,Library,NA,NA,,Fenside-Parkwoods (150),N,N,Don Valley East ,16,416-395-5480,https://www.torontopubliclibrary.ca/detail.jsp?R=LIB029,ba876ef3-5675-4cb3-b3d1-5387ab55bb09,"c(-79.3259043800224, 43.7595499197963)"
105,143,Y,BURROWS HALL,Burrows Hall Community Centre,1081 PROGRESS AVE,M1B 5Z6,Library,NA,NA,,Malvern East (146),N,Y,Scarborough North ,23,416-396-8740,https://www.torontopubliclibrary.ca/detail.jsp?R=LIB030,8f78cb79-cb72-4d1f-9ddd-4374932f9f83,"c(-79.2343702198552, 43.7940559999768)"
106,144,Y,CEDARBRAE,Cedarbrae Public Library,545 MARKHAM RD,M1H 2A1,Library,NA,NA,,Golfdale-Cedarbrae-Woburn (141),Y,N,Scarborough-Guildwood ,24,416-396-8850,https://www.torontopubliclibrary.ca/detail.jsp?R=LIB08,5ddc195b-ce09-4464-8cc8-af7582c8ac8e,"c(-79.223968429551, 43.7575573502427)"
107,145,Y,CENTENNIAL,Centennial Public Library,578 FINCH AVE W,M2R 1N7,Library,NA,NA,,Westminster-Branson (35) ,N,Y,York Centre,6,416-395-5490,https://www.torontopubliclibrary.ca/detail.jsp?R=LIB031,f4b57028-8de3-4956-8901-184d62550131,"c(-79.4495934896462, 43.7730467302778)"
108,146,Y,CITY HALL,City Hall Public Library,100 QUEEN ST W,M5H 2N1,Library,NA,NA,,Yonge-Bay Corridor (170),N,N,Spadina-Fort York ,10,416-393-7650,https://www.torontopubliclibrary.ca/detail.jsp?R=LIB032,885034dc-0c81-430b-b921-8540887ccbec,"c(-79.3836250599699, 43.65282214002)"
109,147,Y,CLIFFCREST,Cliffcrest Public Library,3017 KINGSTON RD,M1M 1P1,Library,NA,NA,,Cliffcrest (123),N,N,Scarborough Southwest ,20,416-396-8916,https://www.torontopubliclibrary.ca/detail.jsp?R=LIB033,8179f884-ed9e-4d11-98f9-3b895f30cefd,"c(-79.2307801603144, 43.7252731799125)"
110,148,Y,COLLEGE/SHAW,College Shaw Public Library,766 COLLEGE ST,M6G 1C4,Library,NA,NA,,Palmerston-Little Italy (80),N,N,University-Rosedale ,11,416-393-7668,https://www.torontopubliclibrary.ca/detail.jsp?R=LIB034,b8b1aad4-f505-486e-a9ab-4c0693cf8406,"c(-79.4201598596803, 43.6552104396855)"
111,149,Y,DANFORTH/COXWELL,Danforth/Coxwell Public Library,1675 DANFORTH AVE,M4C 5P2,Library,NA,NA,,Woodbine Corridor (64),N,N,Beaches-East York ,19,416-393-7783,https://www.torontopubliclibrary.ca/detail.jsp?R=LIB035,288c1999-1caf-4f94-91f1-89ff1f3df398,"c(-79.3213561603315, 43.683644979982)"
112,150,Y,DAVENPORT,Davenport Public Library,1246 SHAW ST,M6G 3P1,Library,NA,NA,,Wychwood (94),N,N,Toronto-St. Paul's ,12,416-393-7732,https://www.torontopubliclibrary.ca/detail.jsp?R=LIB036,46d14e0d-f655-4254-b41d-32519de8facc,"c(-79.4284212404452, 43.6745786896851)"
113,151,Y,DAWES ROAD,Dawes Road Public Library,416 DAWES RD,M4B 2E8,Library,NA,NA,,O'Connor-Parkview (54),N,N,Beaches-East York ,19,416-396-3820,https://www.torontopubliclibrary.ca/detail.jsp?R=LIB037,09eb2777-0948-483b-9534-ec9fda45298c,"c(-79.2972330397453, 43.7012108901377)"
114,152,Y,DEER PARK,Deer Park Public Library,40 ST CLAIR AVE E,M4T 1M9,Library,NA,NA,,Rosedale-Moore Park (98),N,N,Toronto-St. Paul's ,12,416-393-7657,https://www.torontopubliclibrary.ca/detail.jsp?R=LIB038,4328dcb7-c0db-413b-9fd9-9f1803bd0791,"c(-79.3924967498507, 43.6886683499055)"
115,153,Y,DON MILLS,Don Mills Library,888 LAWRENCE AVE E,M3C 1P6,Library,NA,NA,,Banbury-Don Mills (42),N,N,Don Valley East ,16,416-395-5710,https://www.torontopubliclibrary.ca/detail.jsp?R=LIB09,423db2ea-2d1f-4481-b7a3-85b17fb83d97,"c(-79.3474755396, 43.7366195798188)"
116,154,Y,DOWNSVIEW,Downsview Public Library,2793 KEELE ST,M3M 2G3,Library,NA,NA,,Downsview (155),Y,N,York Centre,6,416-395-5720,https://www.torontopubliclibrary.ca/detail.jsp?R=LIB039,dbff90d0-75b0-4744-b87b-905d438cd20d,"c(-79.4820629895895, 43.728941599947)"
117,155,Y,DUFFERIN/ST. CLAIR,Dufferin St. Clair Public Library,1625 DUFFERIN ST,M6H 3L9,Library,NA,NA,,Corso Italia-Davenport (92),N,N,Davenport,9,416-393-7712,https://www.torontopubliclibrary.ca/detail.jsp?R=LIB040,32234a74-0871-47a8-a293-2772804a99f7,"c(-79.4424027003757, 43.6770052899071)"
118,156,Y,EATONVILLE,Eatonville Public Library,430 BURNHAMTHORPE RD,M9B 2B1,Library,NA,NA,,Islington (158),N,N,Etobicoke Centre,2,416-394-5270,https://www.torontopubliclibrary.ca/detail.jsp?R=LIB041,928d0110-89fc-48c6-9f29-6b3033fa5fa7,"c(-79.5593382604221, 43.646139600098)"
119,157,Y,EGLINTON SQUARE,Eglinton Square Public Library,1 EGLINTON SQ,M1L 2K1,Library,NA,NA,,Clairlea-Birchmount (120),N,N,Scarborough Southwest ,20,416-396-8920,https://www.torontopubliclibrary.ca/detail.jsp?R=LIB042,a8baa615-067a-4b06-9a31-6a7681504cd5,"c(-79.3008259496405, 43.7230127700417)"
120,158,Y,ELMBROOK PARK,Elmbrook Park,2 ELMBROOK CRES,M9C 5B4,Library,NA,NA,,Eringate-Centennial-West Deane (11),N,N,Etobicoke Centre,2,416-394-5290,https://www.torontopubliclibrary.ca/detail.jsp?R=LIB043,e14166c5-9a34-4108-a447-ed16058eeac0,"c(-79.5839169499266, 43.6599328102815)"
121,159,Y,EVELYN GREGORY,Evelyn Gregory Public Library,120 TROWELL AVE,M6M 1L7,Library,NA,NA,,Keelesdale-Eglinton West (110),Y,N,York South-Weston,5,416-394-1006,https://www.torontopubliclibrary.ca/detail.jsp?R=LIB044,38b38b3b-ec23-4622-b2cc-3f6c7f4301b2,"c(-79.4723665995655, 43.6863324503016)"
122,160,Y,FAIRVIEW,Fairview Public Library,35 FAIRVIEW MALL DR,M2J 4S4,Library,NA,NA,,Don Valley Village (47),N,N,Don Valley North ,17,416-395-5750,https://www.torontopubliclibrary.ca/detail.jsp?R=LIB010,b1cbef53-1772-4d6c-a7f7-82a01b816740,"c(-79.3467821803378, 43.779110240262)"
123,161,Y,FLEMINGDON PARK,Dennis R. Timbrell Resource Centre,29 ST DENNIS DR,M3C 3J3,Library,NA,NA,,Flemingdon Park (44),Y,N,Don Valley East ,16,416-395-5820,https://www.torontopubliclibrary.ca/detail.jsp?R=LIB045,c5d15ad3-27c7-45cd-8554-750e59a8d37a,"c(-79.3316873601224, 43.7179406800766)"
124,162,Y,FOREST HILL,Forest Hill Public Library,700 EGLINTON AVE W,M5N 1B9,Library,NA,NA,,Forest Hill North (102),N,N,Eglinton-Lawrence,8,416-393-7706,https://www.torontopubliclibrary.ca/detail.jsp?R=LIB046,e61aefc0-96f5-4c6c-a405-67efae54c431,"c(-79.4208022296686, 43.7022301901247)"
125,163,Y,FORT YORK,Fort York Public Library,190 FORT YORK BLVD,M5V 0E7,Library,NA,NA,,Harbourfront-CityPlace (165),N,N,Spadina-Fort York ,10,416-393-6240,https://www.torontopubliclibrary.ca/detail.jsp?R=LIB140,0adac163-db70-4f25-a035-487fcd3e1506,"c(-79.400325539704, 43.6393118501847)"
126,164,Y,GERRARD/ASHDALE,Gerrard Ashdale Public Library,1432 GERRARD ST E,M4L 1Z6,Library,NA,NA,,Greenwood-Coxwell (65),N,N,Toronto-Danforth ,14,416-393-7717,https://www.torontopubliclibrary.ca/detail.jsp?R=LIB047,c314e11c-f54c-414c-b7ae-39fabf33df3e,"c(-79.3221213201377, 43.672489529798)"
127,165,Y,GOLDHAWK PARK,Goldhawk Community Centre,295 ALTON TOWERS CRCL,M1V 4P1,Library,NA,NA,,Milliken (130),N,N,Scarborough North ,23,416-396-8964,https://www.torontopubliclibrary.ca/detail.jsp?R=LIB048,e96e4932-77e5-4e9b-bb9a-4044cb092f3c,"c(-79.2781945597371, 43.8240886999543)"
128,166,Y,GUILDWOOD,Guildwood Public Library,123 GUILDWOOD PKWY,M1E 4V2,Library,NA,NA,,Guildwood (140),N,N,Scarborough-Guildwood ,24,416-396-8872,https://www.torontopubliclibrary.ca/detail.jsp?R=LIB139,a50fc79a-027e-4644-9e96-a436ce8ef299,"c(-79.199373740153, 43.7468515901145)"
129,167,Y,HIGH PARK,High Park Public Library,228 RONCESVALLES AVE,M6R 2L7,Library,NA,NA,,High Park-Swansea (87),N,N,Parkdale-High Park,4,416-393-7671,https://www.torontopubliclibrary.ca/detail.jsp?R=LIB049,bbbd6651-1bb8-4b25-b394-f89ad39cc151,"c(-79.4489629396904, 43.6451348499186)"
130,168,Y,HIGHLAND CREEK,Highland Creek Public Library,3550 ELLESMERE RD,M1C 3Z2,Library,NA,NA,,Highland Creek (134),N,N,Scarborough-Rouge Park ,25,416-396-8876,https://www.torontopubliclibrary.ca/detail.jsp?R=LIB050,6460bc33-9ef5-48a1-aa8b-030426e20ebb,"c(-79.1752378203707, 43.7900692596962)"
131,169,Y,HILLCREST,Hillcrest Public Library,5801 LESLIE ST,M2H 1J8,Library,NA,NA,,Hillcrest Village (48),N,N,Don Valley North ,17,416-395-5830,https://www.torontopubliclibrary.ca/detail.jsp?R=LIB051,870334d9-d3a3-4997-a7f9-e90127bca7a6,"c(-79.3690158303695, 43.7971171699601)"
132,170,Y,HUMBER BAY,Humber Bay Public Library,200 PARK LAWN RD,M8Y 3J1,Library,NA,NA,,Stonegate-Queensway (16),N,N,Etobicoke-Lakeshore,3,416-394-5300,https://www.torontopubliclibrary.ca/detail.jsp?R=LIB052,67a66b35-e2d2-492e-a283-f0864b4727c6,"c(-79.4912526696061, 43.63032402017)"
133,171,Y,HUMBER SUMMIT,Whitfield Parkette,2990 ISLINGTON AVE,M9L 2K6,Library,NA,NA,,Humber Summit (21),Y,N,Humber River-Black Creek,7,416-395-5840,https://www.torontopubliclibrary.ca/detail.jsp?R=LIB053,fc2d3998-6403-4d5d-a14c-a7e8e189d9a7,"c(-79.5715992902766, 43.7590380302632)"
134,172,Y,HUMBERWOOD,Humberwood Public Library,850 HUMBERWOOD BLVD,M9W 7A6,Library,NA,NA,,West Humber-Clairville (1),N,N,Etobicoke North,1,416-394-5210,https://www.torontopubliclibrary.ca/detail.jsp?R=LIB054,3b4e6c25-f3ef-4a4e-95cc-72e9d4aee506,"c(-79.6191818803716, 43.7288858603148)"
135,173,Y,JANE/DUNDAS,Jane/Dundas Public Library,620 JANE ST,M6S 4A6,Library,NA,NA,,Runnymede-Bloor West Village (89),N,N,Parkdale-High Park,4,416-394-1014,https://www.torontopubliclibrary.ca/detail.jsp?R=LIB055,7b7fde0e-d563-40f4-aab1-e1f327bec79b,"c(-79.4914703098399, 43.6654731900722)"
136,174,Y,JANE/SHEPPARD,Jane/Sheppard Public Library,1906 SHEPPARD AVE W,M3L 1Y7,Library,NA,NA,,Glenfield-Jane Heights (25) ,Y,N,Humber River-Black Creek,7,416-395-5966,https://www.torontopubliclibrary.ca/detail.jsp?R=LIB056,caa80edf-c96e-46ff-a2bc-4fdfc9ee51e6,"c(-79.5100357001886, 43.7399603999195)"
137,175,Y,JONES,Jones Public Library,118 JONES AVE,M4M 2Z9,Library,NA,NA,,South Riverdale (70),N,N,Toronto-Danforth ,14,416-393-7715,https://www.torontopubliclibrary.ca/detail.jsp?R=LIB057,4ebf708b-cf7c-47ca-af49-5764238e4499,"c(-79.3345471603041, 43.6659547802709)"
138,176,Y,KENNEDY/EGLINTON,Kennedy Eglinton Public Library,2380 EGLINTON AVE E,M1K 2P3,Library,NA,NA,,Ionview (125),Y,N,Scarborough Centre ,21,416-396-8924,https://www.torontopubliclibrary.ca/detail.jsp?R=LIB138,a062d55c-3028-4156-9869-eff0b02558ee,"c(-79.2703636498597, 43.7322626898654)"
139,177,Y,LEASIDE,Leaside Public Public Library,165 MCRAE DR,M4G 1S8,Library,NA,NA,,Leaside-Bennington (56),N,N,Don Valley West ,15,416-396-3835,https://www.torontopubliclibrary.ca/detail.jsp?R=LIB059,3f9b3271-741d-467d-b9b8-43be0a578b22,"c(-79.3675598104142, 43.7064608296879)"
140,178,Y,LILLIAN H. SMITH,Lillian H. Smith Public Library,239 COLLEGE ST,M5T 1R5,Library,NA,NA,,Kensington-Chinatown (78),N,N,University-Rosedale ,11,416-393-7746,https://www.torontopubliclibrary.ca/detail.jsp?R=LIB011,862ebe69-a0e1-4467-a241-32e31e4863d0,"c(-79.3983856197631, 43.657926399719)"
141,179,Y,LOCKE,Locke Public Library,3083 YONGE ST,M4N 2K7,Library,NA,NA,,Lawrence Park South (103) ,N,N,Don Valley West ,15,416-393-7730,https://www.torontopubliclibrary.ca/detail.jsp?R=LIB060,74f0a6c0-e9d9-4b01-88f7-24372f1e2c5c,"c(-79.4017318495863, 43.724894860143)"
142,180,Y,LONG BRANCH,Long Branch Public Library,3500 LAKE SHORE BLVD W,M8W 1N6,Library,NA,NA,,Long Branch (19),N,N,Etobicoke-Lakeshore,3,416-394-5320,https://www.torontopubliclibrary.ca/detail.jsp?R=LIB061,5b3a8134-7ff4-42f3-83fd-9268fb7a6b2a,"c(-79.5313254598085, 43.5953143597584)"
143,181,Y,MAIN STREET,Main Street Public Library,137 MAIN ST,M4E 2V9,Library,NA,NA,,East End-Danforth (62),N,N,Beaches-East York ,19,416-393-7700,https://www.torontopubliclibrary.ca/detail.jsp?R=LIB062,88e31dd7-6f81-41a6-977c-9265d10f57ab,"c(-79.2994704897932, 43.6833718400094)"
144,182,Y,MALVERN,Malvern Recreation Centre,30 SEWELLS RD,M1B 3G5,Library,NA,NA,,Malvern East (146),N,Y,Scarborough-Rouge Park ,25,416-396-8969,https://www.torontopubliclibrary.ca/detail.jsp?R=LIB012,6a289c15-bbe7-4e62-bbd3-44d9fad2a341,"c(-79.2163862299381, 43.8085677101913)"
145,183,Y,MARIA A. SHCHUKA,Maria A. Shchuka Public Library,1745 EGLINTON AVE W,M6E 2H4,Library,NA,NA,,Oakwood Village (107),N,N,Toronto-St. Paul's ,12,416-394-1000,https://www.torontopubliclibrary.ca/detail.jsp?R=LIB013,9940abfd-5051-4524-8140-02fe4b097f1e,"c(-79.4472496602041, 43.6960393201319)"
146,184,Y,MARYVALE,Parkway Mall,85 ELLESMERE RD,M1R 4B9,Library,NA,NA,,Wexford/Maryvale (119),N,N,Scarborough Centre ,21,416-396-8931,https://www.torontopubliclibrary.ca/detail.jsp?R=LIB063,a54c7d04-a6bc-48ca-87d4-b481a8a1afeb,"c(-79.3124106298328, 43.7570957497033)"
147,185,Y,MCGREGOR PARK,McGregor Park Public Library,2219 LAWRENCE AVE E,M1P 2P5,Library,NA,NA,,Dorset Park (126),N,Y,Scarborough Centre ,21,416-396-8935,https://www.torontopubliclibrary.ca/detail.jsp?R=LIB064,5dcdb72b-b6ed-4830-bd03-d2becfeccf9e,"c(-79.281090930334, 43.7479109200512)"
148,186,Y,MIMICO CENTENNIAL,Mimico Public Library,47 STATION RD,M8V 2R1,Library,NA,NA,,Mimico-Queensway (160),N,N,Etobicoke-Lakeshore,3,416-394-5330,https://www.torontopubliclibrary.ca/detail.jsp?R=LIB065,7a2f0c19-6e5e-43a2-b081-e4662ac92c8e,"c(-79.4937450498535, 43.6148016202916)"
149,187,Y,MORNINGSIDE,Morningside Public Library,4279 LAWRENCE AVE E,M1E 2S8,Library,NA,NA,,West Hill (136),Y,N,Scarborough-Rouge Park ,25,416-396-8881,https://www.torontopubliclibrary.ca/detail.jsp?R=LIB066,3c7e1ccc-b8db-4cd9-bbc1-a8b5996696e3,"c(-79.1784470301636, 43.7698620401169)"
150,188,Y,MOUNT DENNIS,Mount Dennis Public Library,1123 WESTON RD,M6N 3S3,Library,NA,NA,,Mount Dennis (115),Y,N,York South-Weston,5,416-394-1008,https://www.torontopubliclibrary.ca/detail.jsp?R=LIB067,e97a413e-0825-4034-bb12-4b98f49abae7,"c(-79.4882246796504, 43.6866398001795)"
151,189,Y,MOUNT PLEASANT,Mount Pleasant Public Library,599 MOUNT PLEASANT RD,M4S 2M5,Library,NA,NA,,Mount Pleasant East (99),N,N,Don Valley West ,15,416-393-7737,https://www.torontopubliclibrary.ca/detail.jsp?R=LIB068,77b6740f-6123-40d6-9251-388a607f0193,"c(-79.3880448502195, 43.7039665101976)"
152,190,Y,NEW TORONTO,New Toronto Public Library,110 ELEVENTH ST,M8V 3G5,Library,NA,NA,,New Toronto (18),N,N,Etobicoke-Lakeshore,3,416-394-5350,https://www.torontopubliclibrary.ca/detail.jsp?R=LIB069,05b170c0-b57c-4dea-9596-935c8f7c3e62,"c(-79.5097333497219, 43.5992448999855)"
153,191,Y,NORTH YORK CENTRAL LIBRARY,North York Central Public Library,5120 YONGE ST,M2N 5N9,Library,NA,NA,,Willowdale West (37),N,N,Willowdale ,18,416-395-5535,https://www.torontopubliclibrary.ca/detail.jsp?R=LIB01,ae0112a4-fb8a-46f2-bee0-3b91d6c1cc61,"c(-79.4141004095769, 43.768204259678)"
154,192,Y,NORTHERN DISTRICT,Northern District Public Library,40 ORCHARD VIEW BLVD,M4R 1B9,Library,NA,NA,,Yonge-Eglinton (100),N,N,Eglinton-Lawrence,8,416-393-7610,https://www.torontopubliclibrary.ca/detail.jsp?R=LIB014,55895aa8-c64b-4a26-a1c3-4bbd83d02c32,"c(-79.4000672902294, 43.7082784898402)"
155,193,Y,NORTHERN ELMS,Northern Elms Public Library,123 REXDALE BLVD,M9W 1P1,Library,NA,NA,,West Humber-Clairville (1),N,N,Etobicoke North,1,416-394-5230,https://www.torontopubliclibrary.ca/detail.jsp?R=LIB070,d69d4f57-94bb-4d4b-ae01-944965aa5962,"c(-79.5652441803587, 43.7113836699014)"
156,194,Y,OAKWOOD VILLAGE LIBRARY AND ARTS CENTRE,Oakwood Village Public Library,341 OAKWOOD AVE,M6E 2W1,Library,NA,NA,,Oakwood Village (107),N,N,Toronto-St. Paul's ,12,416-394-1040,https://www.torontopubliclibrary.ca/detail.jsp?R=LIB071,acdf7d71-933f-491e-82ca-a6f1d18f3a9a,"c(-79.4381553597111, 43.6865837899394)"
157,195,Y,PALMERSTON,Palmerston Public Library,560 PALMERSTON AVE,M6G 2P7,Library,NA,NA,,Annex (95),N,N,University-Rosedale ,11,416-393-7680,https://www.torontopubliclibrary.ca/detail.jsp?R=LIB072,dd653cd6-fe27-40d5-9da4-811c421cfab5,"c(-79.4141879297401, 43.6651022999074)"
158,196,Y,PAPE/DANFORTH,Pape/Danforth Public Library,701 PAPE AVE,M4K 3S6,Library,NA,NA,,Blake-Jones (69),N,N,Toronto-Danforth ,14,416-393-7727,https://www.torontopubliclibrary.ca/detail.jsp?R=LIB015,7654bb19-02ae-4ab2-bcaa-ba0f8312d302,"c(-79.3444428200143, 43.6786408702618)"
159,197,Y,PARKDALE,Parkdale Public Library,1303 QUEEN ST W,M6K 1L6,Library,NA,NA,,South Parkdale (85),Y,N,Parkdale-High Park,4,416-393-7686,https://www.torontopubliclibrary.ca/detail.jsp?R=LIB073,bebd26b4-bd06-45a6-8516-ecdcde50c2ba,"c(-79.4326506597199, 43.6411508900056)"
160,198,Y,PARLIAMENT STREET,Parliament Street Public Library,269 GERRARD ST E,M5A 2G3,Library,NA,NA,,Moss Park (73),N,N,Toronto Centre ,13,416-393-7663,https://www.torontopubliclibrary.ca/detail.jsp?R=LIB074,3a774f36-58fc-440a-b51f-c5c663c85fda,"c(-79.3679579096122, 43.6618383200756)"
161,199,Y,PERTH/DUPONT,Perth/Dupont Public Library,1589 DUPONT ST,M6P 3S5,Library,NA,NA,,Junction-Wallace Emerson (171),N,N,Davenport,9,416-393-7677,https://www.torontopubliclibrary.ca/detail.jsp?R=LIB075,4f98d83a-739e-4716-ba46-5f4316763c6b,"c(-79.4538368804184, 43.665033859738)"
162,200,Y,PLEASANT VIEW,Pleasant View Public Library,575 VAN HORNE AVE,M2J 4S8,Library,NA,NA,,Pleasant View (46),N,N,Don Valley North ,17,416-395-5940,https://www.torontopubliclibrary.ca/detail.jsp?R=LIB076,c6fade9d-6ac7-4fe5-9241-ae701438d44e,"c(-79.3354447802922, 43.7875616800945)"
163,201,Y,PORT UNION,Port Union Community Recreation Centre,5450 LAWRENCE AVE E,M1C 3B2,Library,NA,NA,,Centennial Scarborough (133),N,N,Scarborough-Rouge Park ,25,416-396-8885,https://www.torontopubliclibrary.ca/detail.jsp?R=LIB077,07c13469-07e3-429a-a77d-9e54a779ddf8,"c(-79.3354447802922, 43.7875616800945)"
164,202,Y,QUEEN/SAULTER,Queen/Saulter Public Library,765 QUEEN ST E,M4M 1H3,Library,NA,NA,,South Riverdale (70),N,N,Toronto-Danforth ,14,416-393-7723,https://www.torontopubliclibrary.ca/detail.jsp?R=LIB078,e705641c-5114-423d-8538-bd87f6ddb87e,"c(-79.3475796202054, 43.6591955403062)"
165,203,Y,REXDALE,Rexdale Public Library,2243 KIPLING AVE,M9W 4L5,Library,NA,NA,,Rexdale-Kipling (4),N,N,Etobicoke North,1,416-394-5200,https://www.torontopubliclibrary.ca/detail.jsp?R=LIB079,ba0ac4cf-2b10-49fa-9c5e-569fa6efecc1,"c(-79.5731999803151, 43.7261607900616)"
166,204,Y,RICHVIEW,Richview Public Library,1806 ISLINGTON AVE,M9P 3N3,Library,NA,NA,,Willowridge-Martingrove-Richview (7),N,N,Etobicoke Centre,2,416-394-5120,https://www.torontopubliclibrary.ca/detail.jsp?R=LIB016,45f20c47-98dc-4994-8ee7-df1fd30d1a60,"c(-79.5411253797707, 43.683433139953)"
167,205,Y,RIVERDALE,Riverdale Public Library,370 BROADVIEW AVE,M4K 2M8,Library,NA,NA,,North Riverdale (68),N,N,Toronto-Danforth ,14,416-393-7720,https://www.torontopubliclibrary.ca/detail.jsp?R=LIB080,b493aeb1-6caa-42c4-a570-675c8ebfa499,"c(-79.353180180319, 43.6658148300865)"
168,206,Y,RUNNYMEDE,Runnymede Public Library,2178 BLOOR ST W,M6S 1M8,Library,NA,NA,,High Park North (88),N,N,Parkdale-High Park,4,416-393-7697,https://www.torontopubliclibrary.ca/detail.jsp?R=LIB081,84284fe1-ae2f-4b08-880d-5842858e588a,"c(-79.4739122103007, 43.6519103198044)"
169,207,Y,S. WALTER STEWART,S. Walter Stewart Public Library,170 MEMORIAL PARK AVE,M4J 2K5,Library,NA,NA,,Danforth East York (59),N,N,Toronto-Danforth ,14,416-396-3975,https://www.torontopubliclibrary.ca/detail.jsp?R=LIB017,0bfdefba-0420-4a3a-bc0a-31dedc5833e2,"c(-79.3297133796592, 43.6921382898272)"
170,208,Y,SANDERSON,Sanderson Public Library,327 BATHURST ST,M5T 1J1,Library,NA,NA,,Kensington-Chinatown (78),N,N,Spadina-Fort York ,10,416-393-7653,https://www.torontopubliclibrary.ca/detail.jsp?R=LIB085,0cfbc72f-1105-4de0-8d7d-9e996ba1c946,"c(-79.4055623099752, 43.6519038798704)"
171,209,Y,SCARBOROUGH CIVIC CENTRE,Scarborough Civic Centre Public Library,156 BOROUGH DR,M1P 0B5,Library,NA,NA,,Bendale-Glen Andrew (156),N,N,Scarborough Centre ,21,416-396-3599,https://www.torontopubliclibrary.ca/detail.jsp?R=LIB144,6a22b844-787e-4309-8a0b-7841de8b7558,"c(-79.2569155996635, 43.7724846703062)"
172,210,Y,SPADINA ROAD,Spadina Road Public Library,10 SPADINA RD,M5R 2S7,Library,NA,NA,,Annex (95),N,N,University-Rosedale ,11,416-393-7666,https://www.torontopubliclibrary.ca/detail.jsp?R=LIB086,ac75cd74-3ae1-4358-97ed-fdfcf8f5eee4,"c(-79.4046693800912, 43.6676778400184)"
173,211,Y,ST. CLAIR/SILVERTHORN,St. Clair/Silverthorn Public Library,1748 ST CLAIR AVE W,M6N 1J3,Library,NA,NA,,Weston-Pelham Park (91),Y,N,Davenport,9,416-393-7709,https://www.torontopubliclibrary.ca/detail.jsp?R=LIB082,6867831c-c8bb-4896-a4c8-8350c5b5a58d,"c(-79.4606720096, 43.6743468702788)"
174,212,Y,ST. JAMES TOWN,Wellesley Community Centre,495 SHERBOURNE ST,M4X 1K7,Library,NA,NA,,North St.James Town (74),N,N,Toronto Centre ,13,416-393-7744,https://www.torontopubliclibrary.ca/detail.jsp?R=LIB083,6214ecc6-d1f9-4575-9faa-10a5225fd91b,"c(-79.3744794000972, 43.6677968499193)"
175,213,Y,ST. LAWRENCE,St. Lawrence Public Library,171 FRONT ST E,M5A 4H3,Library,NA,NA,,St Lawrence-East Bayfront-The Islands (166),N,N,Toronto Centre ,13,416-393-7655,https://www.torontopubliclibrary.ca/detail.jsp?R=LIB084,fadd4009-24a6-4dc5-a0e7-189f0bcad983,"c(-79.3684698100853, 43.6499749202157)"
176,214,Y,STEELES,Steeles Public Library,375 BAMBURGH CRCL,M1W 3Y1,Library,NA,NA,,Steeles (116),N,Y,Scarborough-Agincourt ,22,416-396-8975,https://www.torontopubliclibrary.ca/detail.jsp?R=LIB087,26b81231-7060-4508-8182-cf5056fd3f50,"c(-79.3222860999069, 43.815762430144)"
177,215,Y,SWANSEA MEMORIAL,Swansea Memorial Public Library,95 LAVINIA AVE,M6S 3H9,Library,NA,NA,,High Park-Swansea (87),N,N,Parkdale-High Park,4,416-393-7695,https://www.torontopubliclibrary.ca/detail.jsp?R=LIB088,e7bb6187-8a44-4475-a3c5-41e382daa787,"c(-79.4778817002512, 43.6476583701514)"
178,216,Y,TAYLOR MEMORIAL,Taylor Memorial Public Library,1440 KINGSTON RD,M1N 1R3,Library,NA,NA,,Birchcliffe-Cliffside (122),N,N,Scarborough Southwest ,20,416-396-8939,https://www.torontopubliclibrary.ca/detail.jsp?R=LIB089,5b9b43e6-92ae-4c70-b461-9ca718bacddd,"c(-79.271306199985, 43.6878392900882)"
179,217,Y,THORNCLIFFE,Thorncliffe Public Library,48 THORNCLIFFE PARK DR,M4H 1J7,Library,NA,NA,,Thorncliffe Park (55),Y,N,Don Valley West ,15,416-396-3865,https://www.torontopubliclibrary.ca/detail.jsp?R=LIB090,c807e05b-42bc-455c-b6c1-e93db34525f5,"c(-79.3427368303565, 43.7029474098799)"
180,218,Y,TODMORDEN ROOM,Todmorden Room Public Library,1081 1/2 PAPE AVE,M4K 3W6,Library,NA,NA,,Old East York (58),N,N,Toronto-Danforth ,14,416-396-3875,https://www.torontopubliclibrary.ca/detail.jsp?R=LIB091,e9d1a4db-f06b-4b86-8232-0a2b2e3c286e,"c(-79.3492704498945, 43.6917839803155)"
181,219,Y,TORONTO REFERENCE LIBRARY,Toronto Reference Public Library,789 YONGE ST,M4W 2G8,Library,NA,NA,,Rosedale-Moore Park (98),N,N,University-Rosedale ,11,416-395-5577,https://www.torontopubliclibrary.ca/detail.jsp?R=LIB018,bc864c18-31b9-4dcd-83fa-f7499538f602,"c(-79.3866732099172, 43.671887520078)"
182,220,Y,VICTORIA VILLAGE,Victoria Village Public Library,184 SLOANE AVE,M4A 2C4,Library,NA,NA,,Victoria Village (43),Y,N,Don Valley East ,16,416-395-5950,https://www.torontopubliclibrary.ca/detail.jsp?R=LIB092,b6795f5a-ea85-42e0-8366-138394d31ded,"c(-79.3128928302059, 43.7359713203066)"
183,221,Y,WESTON,Weston Public Library,2 KING ST,M9N 1K9,Library,NA,NA,,Weston (113),Y,N,York South-Weston,5,416-394-1016,https://www.torontopubliclibrary.ca/detail.jsp?R=LIB093,5c7590e5-42d8-4dd2-a237-2bf0c7674e92,"c(-79.5205849004377, 43.7018204098709)"
184,222,Y,WOODSIDE SQUARE,Woodside Square Public Library,1571 SANDHURST CRCL,M1V 1V2,Library,NA,NA,,Agincourt North (129),N,N,Scarborough North ,23,416-396-8979,https://www.torontopubliclibrary.ca/detail.jsp?R=LIB094,f0f9b4cc-dc91-4cad-9131-53990e8abc33,"c(-79.2693152898719, 43.8092293401488)"
185,223,Y,WOODVIEW PARK,Woodview Park Public Library,16 BRADSTOCK RD,M9M 1M8,Library,NA,NA,,Humbermede (22),Y,N,Humber River-Black Creek,7,416-395-5960,https://www.torontopubliclibrary.ca/detail.jsp?R=LIB095,0d674bfb-b68d-47d0-9a47-cea7e8de0406,"c(-79.5383110100878, 43.7394873401221)"
186,224,Y,WYCHWOOD,Wychwood Public Library,1431 BATHURST ST,M5R 3J2,Library,NA,NA,,Casa Loma (96),N,N,Toronto-St. Paul's ,12,416-393-7683,https://www.torontopubliclibrary.ca/detail.jsp?R=LIB096,32114c43-a8c1-47fa-ae04-18a6af575922,"c(-79.4175796601308, 43.6820897102551)"
187,225,Y,YORK WOODS,York Woods Public Library,1785 FINCH AVE W,M3N 1M6,Library,NA,NA,,Glenfield-Jane Heights (25) ,Y,N,Humber River-Black Creek,7,416-395-5980,https://www.torontopubliclibrary.ca/detail.jsp?R=LIB019,a8d30779-f634-4a83-b659-934367ec7deb,"c(-79.5073591895625, 43.758964879843)"
188,226,Y,YORKVILLE,Yorkville Public Library,22 YORKVILLE AVE,M4W 1L4,Library,NA,NA,,Annex (95),N,N,University-Rosedale ,11,416-393-7660,https://www.torontopubliclibrary.ca/detail.jsp?R=LIB097,ccebfd7f-bd0b-4109-9012-89460e9933d2,"c(-79.3886726504322, 43.6719529401635)"
189,227,Y,CURRAN HALL COMMUNITY CENTRE,Curran Hall Community Centre,277 ORTON PARK RD,M1G 3T4,,NA,NA,,Morningside (135),Y,N,Scarborough-Guildwood ,24,416-396-5156,https://www.toronto.ca/data/parks/prd/facilities/complex/782/index.html,ca3b6cf8-d256-4206-b3ec-893bf9a0eee6,"c(-79.2108470597927, 43.7774253096808)"
190,228,Y,EDENBRIDGE CENTRE,Edenbridge Centre,235 EDENBRIDGE DR,M9A 3G9,,NA,NA,,Edenbridge-Humber Valley (9),N,N,Etobicoke Centre,2,416-392-2451,https://www.toronto.ca/data/parks/prd/facilities/complex/436/index.html,e968c0bf-91f0-4b91-8a1e-961b48584764,"c(-79.5108567702398, 43.6774711402913)"
191,230,Y,ST. LAWRENCE HALL,St. Lawrence Hall,157 KING ST E,M5C 1G9,,NA,NA,,Downtown Yonge East (168),N,N,Toronto Centre ,13,416-392-7809,http://www.stlawrencemarket.com/st_lawrence_hall,de838e2c-34ef-459b-a4e7-766c5ee77aa4,"c(-79.3721571796292, 43.6501940802641)"
192,231,Y,ST. LAWRENCE MARKET,St. Lawrence Market,92-95 FRONT ST E,M5C 1C3,,NA,NA,,St Lawrence-East Bayfront-The Islands (166),N,N,Toronto Centre ,13,416-392-7219,http://www.stlawrencemarket.com/,6fb6e2a4-e479-41b3-969b-cf348417aa49,"c(-79.3714969403533, 43.6491898399054)"
193,233,Y,TORONTO PAN AM SPORTS CENTRE,Toronto Pan Am Sports Centre,875 MORNINGSIDE AVE,M1C 0C7,,NA,NA,,Highland Creek (134),N,N,Scarborough-Rouge Park,25,416-283-5222,https://www.toronto.ca/data/parks/prd/facilities/complex/2773/index.html,376ac900-0871-415e-802e-2375c9046eb3,"c(-79.194283169796, 43.7909091916862)"
194,234,Y,YORK RECREATION CENTRE,York Recreation Centre,115 Black Creek Dr,M6M 5B4,,NA,NA,,Keelesdale-Eglinton West (110),Y,N,York South-Weston,05,416-392-9675,https://www.toronto.ca/data/parks/prd/facilities/complex/3501/index.html,2c8b28c3-a0de-4c0c-9cc8-4908ea6fcf7d,"c(-79.4819349994245, 43.687715240824)"
